STARLINK-1586_new
1 16137C 20057W   21326.12329000 -.00020304  00000-0 -13603-2 0  3266
2 16137  53.0515 138.1829 0001688  85.1324 306.1715 15.06420998    18
STARLINK-1586_old
1 26137C 20057W   21325.12784491  .00001484  00000-0  99439-4 0  3252
2 26137  53.0514 142.6517 0001758  83.2111 306.7464 15.06404898    10
